ONEWEB-0526             
1 54144U 22138AH  26156.67045294  .00000105  00000+0  22915-3 0  9998
2 54144  87.9167 307.2594 0001729  98.7793 261.3535 13.19730596175282
ONEWEB-0529             
1 54145U 22138AJ  26156.44614801 -.00000063  00000+0 -18918-3 0  9993
2 54145  87.9167 307.3157 0001585  96.8017 263.3297 13.19726576175276
ONEWEB-0531             
1 54146U 22138AK  26156.56648884 -.00000031  00000+0 -10856-3 0  9993
2 54146  87.9192 276.7514 0002684 113.4991 246.6424 13.20772378177775
ONEWEB-0535             
1 54147U 22138AL  26156.70676913  .00000070  00000+0  14238-3 0  9993
2 54147  87.9166 307.2458 0002154  97.8450 262.2927 13.19724809175326
ONEWEB-0536             
1 54148U 22138AM  26156.62876567  .00002406  00000+0  58847-2 0  9990
2 54148  87.9189 276.7627 0002780 117.3301 242.8115 13.20758411177770
ONEWEB-0527             
1 54642U 22166A   26156.83337963 -.00039876  00000+0 -99298-1 0  9992
2 54642  87.9255 246.2458 0002093  99.0238 335.5777 13.20251011  5148
ONEWEB-0528             
1 54643U 22166B   26155.68682016 -.00008935  00000+0 -21712-1 0  9995
2 54643  87.9252 246.4871 0001240  66.4305 293.6959 13.21750757169894
ONEWEB-0539             
1 54644U 22166C   26156.48239345 -.00000036  00000+0 -11941-3 0  9997
2 54644  87.9263 246.2992 0002051  94.2257 265.9111 13.21825992169992
ONEWEB-0540             
1 54645U 22166D   26156.48925588  .00000089  00000+0  18420-3 0  9994
2 54645  87.9257 246.3286 0002038  97.2780 262.8586 13.21826450169983
ONEWEB-0542             
1 54646U 22166E   26156.49248241  .00000075  00000+0  14889-3 0  9990
2 54646  87.9266 246.2955 0002111  91.7753 268.3622 13.21827375169997
ONEWEB-0545             
1 54647U 22166F   26155.24601416  .00000020  00000+0  16372-4 0  9990
2 54647  87.9255 246.5563 0002353  90.7220 269.4184 13.21828055169799
ONEWEB-0580             
1 54648U 22166G   26156.81040560 -.00005935  00000+0 -14403-1 0  9994
2 54648  87.9248 246.2434 0002185  92.1527 267.9857 13.21862366170048
ONEWEB-0582             
1 54649U 22166H   26156.54967735  .00000057  00000+0  10592-3 0  9992
2 54649  87.9255 246.2894 0002267  89.6088 270.5306 13.21826232169983
ONEWEB-0583             
1 54650U 22166J   26156.48575339  .00000074  00000+0  14845-3 0  9996
2 54650  87.9258 246.3256 0002082  96.3783 263.7588 13.21827463169986
ONEWEB-0584             
1 54651U 22166K   26156.50592438  .00000149  00000+0  32937-3 0  9994
2 54651  87.9257 246.3074 0002175  97.8963 262.2417 13.21825247169975
ONEWEB-0585             
1 54652U 22166L   26155.99961827  .00000005  00000+0 -19757-4 0  9997
2 54652  87.9258 246.3948 0001871 102.1859 257.9485 13.21825314169918
ONEWEB-0586             
1 54653U 22166M   26156.54291801  .00003373  00000+0  81340-2 0  9993
2 54653  87.9284 246.3116 0001373  56.9061 303.2204 13.21818579169989
ONEWEB-0587             
1 54654U 22166N   26156.47732265 -.00000019  00000+0 -76815-4 0  9999
2 54654  87.9271 246.2977 0001798 109.0348 251.0981 13.21827916170135
ONEWEB-0589             
1 54655U 22166P   26156.53955520  .00000001  00000+0 -29026-4 0  9990
2 54655  87.9258 246.2990 0002736  86.7697 273.3750 13.21828506170000
ONEWEB-0590             
1 54656U 22166Q   26156.48898266  .00000060  00000+0  11464-3 0  9998
2 54656  87.9266 246.2978 0002397 107.4474 252.6922 13.21826117169985
ONEWEB-0591             
1 54657U 22166R   26156.80368468  .00000098  00000+0  20612-3 0  9997
2 54657  87.9262 246.2500 0002110 102.2231 257.9139 13.21825402170054
ONEWEB-0592             
1 54658U 22166S   26156.50425837  .00000143  00000+0  31501-3 0  9999
2 54658  87.9267 246.2879 0002049  98.9762 261.1604 13.21827545169894
ONEWEB-0593             
1 54659U 22166T   26156.52611167  .00000048  00000+0  85494-4 0  9990
2 54659  87.9260 246.2958 0002032  94.0380 266.0987 13.21827413170008
ONEWEB-0594             
1 54660U 22166U   26156.54628373 -.00000131  00000+0 -34791-3 0  9999
2 54660  87.9260 246.3089 0002002 103.5434 256.5923 13.21826978170020
ONEWEB-0595             
1 54661U 22166V   26156.52275656  .00000059  00000+0  11079-3 0  9991
2 54661  87.9269 246.2924 0001910 105.4372 254.6973 13.21826584169997
ONEWEB-0596             
1 54662U 22166W   26156.80031773 -.00000012  00000+0 -60038-4 0  9994
2 54662  87.9260 246.2499 0001989 102.6286 257.5071 13.21825835170031
ONEWEB-0597             
1 54663U 22166X   26156.47902608  .00000035  00000+0  52756-4 0  9993
2 54663  87.9256 246.3169 0002034  96.2702 263.8663 13.21826094169993
ONEWEB-0600             
1 54664U 22166Y   26156.30910764 -.00000011  00000+0 -57958-4 0  9993
2 54664  87.9253 246.3425 0001844  93.8903 266.2442 13.21827983169945
ONEWEB-0601             
1 54665U 22166Z   26156.52779449  .00000049  00000+0  87927-4 0  9999
2 54665  87.9258 246.3148 0002218  93.9029 266.2358 13.21824921170160
ONEWEB-0602             
1 54666U 22166AA  26156.49331632  .00000057  00000+0  10770-3 0  9994
2 54666  87.9256 246.3275 0001823  92.9924 267.1418 13.21825584170000
