OBJECT_NAME,OBJECT_ID,EPOCH,MEAN_MOTION,ECCENTRICITY,INCLINATION,RA_OF_ASC_NODE,ARG_OF_PERICENTER,MEAN_ANOMALY,EPHEMERIS_TYPE,CLASSIFICATION_TYPE,NORAD_CAT_ID,ELEMENT_SET_NO,REV_AT_EPOCH,BSTAR,MEAN_MOTION_DOT,MEAN_MOTION_DDOT
ONEWEB-0526,2022-138AH,2026-06-05T16:05:27.134016,13.19730596,.0001729,87.9167,307.2594,98.7793,261.3535,0,U,54144,999,17528,.22915E-3,.105E-5,0
ONEWEB-0529,2022-138AJ,2026-06-05T10:42:27.188064,13.19726576,.0001585,87.9167,307.3157,96.8017,263.3297,0,U,54145,999,17527,-.18918E-3,-.63E-6,0
ONEWEB-0531,2022-138AK,2026-06-05T13:35:44.635776,13.20772378,.0002684,87.9192,276.7514,113.4991,246.6424,0,U,54146,999,17777,-.10856E-3,-.31E-6,0
ONEWEB-0535,2022-138AL,2026-06-05T16:57:44.852832,13.19724809,.0002154,87.9166,307.2458,97.8450,262.2927,0,U,54147,999,17532,.14238E-3,.7E-6,0
ONEWEB-0536,2022-138AM,2026-06-05T15:05:25.353888,13.20758411,.000278,87.9189,276.7627,117.3301,242.8115,0,U,54148,999,17777,.58847E-2,.2406E-4,0
ONEWEB-0527,2022-166A,2026-06-05T20:00:04.000032,13.20251011,.0002093,87.9255,246.2458,99.0238,335.5777,0,U,54642,999,514,-.99298E-1,-.39876E-3,0
ONEWEB-0528,2022-166B,2026-06-04T16:29:01.261824,13.21750757,.000124,87.9252,246.4871,66.4305,293.6959,0,U,54643,999,16989,-.21712E-1,-.8935E-4,0
ONEWEB-0539,2022-166C,2026-06-05T11:34:38.794080,13.21825992,.0002051,87.9263,246.2992,94.2257,265.9111,0,U,54644,999,16999,-.11941E-3,-.36E-6,0
ONEWEB-0540,2022-166D,2026-06-05T11:44:31.708032,13.21826450,.0002038,87.9257,246.3286,97.2780,262.8586,0,U,54645,999,16998,.1842E-3,.89E-6,0
ONEWEB-0542,2022-166E,2026-06-05T11:49:10.480224,13.21827375,.0002111,87.9266,246.2955,91.7753,268.3622,0,U,54646,999,16999,.14889E-3,.75E-6,0
ONEWEB-0545,2022-166F,2026-06-04T05:54:15.623424,13.21828055,.00023532,87.9255,246.5563,90.7220,269.4184,0,U,54647,999,16979,.16372014E-4,.2E-6,0
ONEWEB-0580,2022-166G,2026-06-05T19:26:59.043840,13.21862366,.0002185,87.9248,246.2434,92.1527,267.9857,0,U,54648,999,17004,-.14403E-1,-.5935E-4,0
ONEWEB-0582,2022-166H,2026-06-05T13:11:32.123040,13.21826232,.0002267,87.9255,246.2894,89.6088,270.5306,0,U,54649,999,16998,.10592E-3,.57E-6,0
ONEWEB-0583,2022-166J,2026-06-05T11:39:29.092896,13.21827463,.0002082,87.9258,246.3256,96.3783,263.7588,0,U,54650,999,16998,.14845E-3,.74E-6,0
ONEWEB-0584,2022-166K,2026-06-05T12:08:31.866432,13.21825247,.0002175,87.9257,246.3074,97.8963,262.2417,0,U,54651,999,16997,.32937E-3,.149E-5,0
ONEWEB-0585,2022-166L,2026-06-04T23:59:27.018528,13.21825314,.00018712,87.9258,246.3948,102.1859,257.9485,0,U,54652,999,16991,-.19757337E-4,.5E-7,0
ONEWEB-0586,2022-166M,2026-06-05T13:01:48.116064,13.21818579,.0001373,87.9284,246.3116,56.9061,303.2204,0,U,54653,999,16998,.8134E-2,.3373E-4,0
ONEWEB-0587,2022-166N,2026-06-05T11:27:20.676960,13.21827916,.0001798,87.9271,246.2977,109.0348,251.0981,0,U,54654,999,17013,-.76815E-4,-.19E-6,0
ONEWEB-0589,2022-166P,2026-06-05T12:56:57.569280,13.21828506,.0002736,87.9258,246.2990,86.7697,273.3750,0,U,54655,999,17000,-.29026E-4,.1E-7,0
ONEWEB-0590,2022-166Q,2026-06-05T11:44:08.101824,13.21826117,.0002397,87.9266,246.2978,107.4474,252.6922,0,U,54656,999,16998,.11464E-3,.6E-6,0
ONEWEB-0591,2022-166R,2026-06-05T19:17:18.356352,13.21825402,.000211,87.9262,246.2500,102.2231,257.9139,0,U,54657,999,17005,.20612E-3,.98E-6,0
ONEWEB-0592,2022-166S,2026-06-05T12:06:07.923168,13.21827545,.0002049,87.9267,246.2879,98.9762,261.1604,0,U,54658,999,16989,.31501E-3,.143E-5,0
ONEWEB-0593,2022-166T,2026-06-05T12:37:36.048288,13.21827413,.0002032,87.9260,246.2958,94.0380,266.0987,0,U,54659,999,17000,.85494E-4,.48E-6,0
ONEWEB-0594,2022-166U,2026-06-05T13:06:38.914272,13.21826978,.0002002,87.9260,246.3089,103.5434,256.5923,0,U,54660,999,17002,-.34791E-3,-.131E-5,0
ONEWEB-0595,2022-166V,2026-06-05T12:32:46.166784,13.21826584,.000191,87.9269,246.2924,105.4372,254.6973,0,U,54661,999,16999,.11079E-3,.59E-6,0
ONEWEB-0596,2022-166W,2026-06-05T19:12:27.451872,13.21825835,.0001989,87.9260,246.2499,102.6286,257.5071,0,U,54662,999,17003,-.60038E-4,-.12E-6,0
ONEWEB-0597,2022-166X,2026-06-05T11:29:47.853312,13.21826094,.0002034,87.9256,246.3169,96.2702,263.8663,0,U,54663,999,16999,.52756E-4,.35E-6,0
ONEWEB-0600,2022-166Y,2026-06-05T07:25:06.900096,13.21827983,.0001844,87.9253,246.3425,93.8903,266.2442,0,U,54664,999,16994,-.57958E-4,-.11E-6,0
ONEWEB-0601,2022-166Z,2026-06-05T12:40:01.443936,13.21824921,.0002218,87.9258,246.3148,93.9029,266.2358,0,U,54665,999,17016,.87927E-4,.49E-6,0
ONEWEB-0602,2022-166AA,2026-06-05T11:50:22.530048,13.21825584,.0001823,87.9256,246.3275,92.9924,267.1418,0,U,54666,999,17000,.1077E-3,.57E-6,0
